{
    "links": {
        "self": "http://www.neowsapp.com/rest/v1/neo/54087735?api_key=iIulBulltgU6a56xZRHN4H3l9WmuAYTsLGpBGhQ2"
    },
    "id": "54087735",
    "neo_reference_id": "54087735",
    "name": "(2020 VS2)",
    "designation": "2020 VS2",
    "nasa_jpl_url": "http://ssd.jpl.nasa.gov/sbdb.cgi?sstr=54087735",
    "absolute_magnitude_h": 27.426,
    "estimated_diameter": {
        "kilometers": {
            "estimated_diameter_min": 0.0086967098,
            "estimated_diameter_max": 0.0194464342
        },
        "meters": {
            "estimated_diameter_min": 8.6967097647,
            "estimated_diameter_max": 19.4464342145
        },
        "miles": {
            "estimated_diameter_min": 0.0054038832,
            "estimated_diameter_max": 0.0120834503
        },
        "feet": {
            "estimated_diameter_min": 28.5325132644,
            "estimated_diameter_max": 63.8006392282
        }
    },
    "is_potentially_hazardous_asteroid": false,
    "close_approach_data": [
        {
            "close_approach_date": "2020-11-02",
            "close_approach_date_full": "2020-Nov-02 11:59",
            "epoch_date_close_approach": 1604318340000,
            "relative_velocity": {
                "kilometers_per_second": "12.7423818064",
                "kilometers_per_hour": "45872.574502914",
                "miles_per_hour": "28503.4338626579"
            },
            "miss_distance": {
                "astronomical": "0.0159430088",
                "lunar": "6.2018304232",
                "kilometers": "2385040.157871256",
                "miles": "1481995.2330690928"
            },
            "orbiting_body": "Earth"
        }
    ],
    "orbital_data": {
        "orbit_id": "1",
        "orbit_determination_date": "2020-11-12 09:42:05",
        "first_observation_date": "2020-11-11",
        "last_observation_date": "2020-11-12",
        "data_arc_in_days": 1,
        "observations_used": 11,
        "orbit_uncertainty": "9",
        "minimum_orbit_intersection": ".0140828",
        "jupiter_tisserand_invariant": "3.971",
        "epoch_osculation": "2459165.5",
        "eccentricity": ".5158485048565907",
        "semi_major_axis": "1.745650925051518",
        "inclination": "3.829313861627082",
        "ascending_node_longitude": "231.4951088636469",
        "orbital_period": "842.431371389154",
        "perihelion_distance": ".845159505362168",
        "perihelion_argument": "111.8912026277584",
        "aphelion_distance": "2.646142344740869",
        "perihelion_time": "2459115.476043541050",
        "mean_anomaly": "21.37696308190198",
        "mean_motion": ".42733451320357",
        "equinox": "J2000",
        "orbit_class": {
            "orbit_class_type": "APO",
            "orbit_class_description": "Near-Earth asteroid orbits which cross the Earth’s orbit similar to that of 1862 Apollo",
            "orbit_class_range": "a (semi-major axis) > 1.0 AU; q (perihelion) < 1.017 AU"
        }
    },
    "is_sentry_object": false
}